{"fetched_at":"2026-07-08T07:04:16.930Z","source":"https://celestrak.org/NORAD/elements/gp.php?NAME=SENTINEL&FORMAT=JSON","constellation":"sentinel-2","records":[{"OBJECT_NAME":"SENTINEL-2A","OBJECT_ID":"2015-028A","EPOCH":"2026-07-07T20:15:26.207712","CLASSIFICATION_TYPE":"U","MEAN_MOTION":14.30820429,"ECCENTRICITY":0.0001235,"INCLINATION":98.5674,"RA_OF_ASC_NODE":263.4023,"ARG_OF_PERICENTER":95.0056,"MEAN_ANOMALY":265.1268,"EPHEMERIS_TYPE":0,"NORAD_CAT_ID":40697,"ELEMENT_SET_NO":999,"REV_AT_EPOCH":57668,"BSTAR":-0.000055154,"MEAN_MOTION_DOT":-0.00000188,"MEAN_MOTION_DDOT":0},{"OBJECT_NAME":"SENTINEL-2B","OBJECT_ID":"2017-013A","EPOCH":"2026-07-07T20:05:04.964064","CLASSIFICATION_TYPE":"U","MEAN_MOTION":14.30813268,"ECCENTRICITY":0.0001194,"INCLINATION":98.568,"RA_OF_ASC_NODE":263.3197,"ARG_OF_PERICENTER":89.1487,"MEAN_ANOMALY":270.9833,"EPHEMERIS_TYPE":0,"NORAD_CAT_ID":42063,"ELEMENT_SET_NO":999,"REV_AT_EPOCH":48759,"BSTAR":-0.000012694,"MEAN_MOTION_DOT":-7.7e-7,"MEAN_MOTION_DDOT":0},{"OBJECT_NAME":"SENTINEL-2C","OBJECT_ID":"2024-157A","EPOCH":"2026-07-07T19:14:45.472416","CLASSIFICATION_TYPE":"U","MEAN_MOTION":14.30814279,"ECCENTRICITY":0.0000949,"INCLINATION":98.5685,"RA_OF_ASC_NODE":263.2917,"ARG_OF_PERICENTER":96.1028,"MEAN_ANOMALY":264.0263,"EPHEMERIS_TYPE":0,"NORAD_CAT_ID":60989,"ELEMENT_SET_NO":999,"REV_AT_EPOCH":9593,"BSTAR":0.00004364,"MEAN_MOTION_DOT":7.1e-7,"MEAN_MOTION_DDOT":0}]}
