SENTINEL-2A             
1 40697U 15028A   26188.84405333 -.00000188  00000+0 -55154-4 0  9999
2 40697  98.5674 263.4023 0001235  95.0056 265.1268 14.30820429576688
SENTINEL-2B             
1 42063U 17013A   26188.83686301 -.00000077  00000+0 -12694-4 0  9998
2 42063  98.5680 263.3197 0001194  89.1487 270.9833 14.30813268487597
SENTINEL-2C             
1 60989U 24157A   26188.80191519  .00000071  00000+0  43640-4 0  9998
2 60989  98.5685 263.2917 0000949  96.1028 264.0263 14.30814279 95931
